[{"OBJECT_NAME":"ONEWEB-0167","OBJECT_ID":"2021-025Y","EPOCH":"2026-03-09T17:05:45.888288","MEAN_MOTION":13.13471284,"ECCENTRICITY":0.00023304,"INCLINATION":87.9037,"RA_OF_ASC_NODE":340.0202,"ARG_OF_PERICENTER":89.8056,"MEAN_ANOMALY":270.334,"EPHEMERIS_TYPE":0,"CLASSIFICATION_TYPE":"U","NORAD_CAT_ID":48064,"ELEMENT_SET_NO":999,"REV_AT_EPOCH":24051,"BSTAR":-0.00029926205,"MEAN_MOTION_DOT":-9.7e-7,"MEAN_MOTION_DDOT":0},{"OBJECT_NAME":"COSMOS 2098","OBJECT_ID":"1990-078A","EPOCH":"2026-03-09T22:39:16.522272","MEAN_MOTION":13.89477842,"ECCENTRICITY":0.07475619,"INCLINATION":82.9419,"RA_OF_ASC_NODE":157.1361,"ARG_OF_PERICENTER":147.44,"MEAN_ANOMALY":217.5252,"EPHEMERIS_TYPE":0,"CLASSIFICATION_TYPE":"U","NORAD_CAT_ID":20774,"ELEMENT_SET_NO":999,"REV_AT_EPOCH":75873,"BSTAR":0.00051972754,"MEAN_MOTION_DOT":7.386e-5,"MEAN_MOTION_DDOT":0}]
